[{"OBJECT_NAME":"STARLINK-1669","OBJECT_ID":"2021-012E","EPOCH":"2026-03-09T22:00:01.999584","MEAN_MOTION":15.7520865,"ECCENTRICITY":0.00087944,"INCLINATION":53.0368,"RA_OF_ASC_NODE":350.7855,"ARG_OF_PERICENTER":92.6287,"MEAN_ANOMALY":29.9444,"EPHEMERIS_TYPE":0,"CLASSIFICATION_TYPE":"U","NORAD_CAT_ID":47624,"ELEMENT_SET_NO":999,"REV_AT_EPOCH":578,"BSTAR":0.0017201852,"MEAN_MOTION_DOT":0.00271838,"MEAN_MOTION_DDOT":0},{"OBJECT_NAME":"STARLINK-36621","OBJECT_ID":"2026-016A","EPOCH":"2026-03-09T17:26:26.846304","MEAN_MOTION":15.75208519,"ECCENTRICITY":0.0001712,"INCLINATION":97.2841,"RA_OF_ASC_NODE":129.1307,"ARG_OF_PERICENTER":43.6098,"MEAN_ANOMALY":316.5303,"EPHEMERIS_TYPE":0,"CLASSIFICATION_TYPE":"U","NORAD_CAT_ID":67561,"ELEMENT_SET_NO":999,"REV_AT_EPOCH":680,"BSTAR":0.0015681349,"MEAN_MOTION_DOT":0.00240674,"MEAN_MOTION_DDOT":0}]
